{
  "norad_id": 67356,
  "name": "STARLINK-36429",
  "history": [
    {
      "epoch": "2026-03-28T09:52:20.089632Z",
      "apogee_km": 483.9340594630703,
      "perigee_km": 482.08964542855574,
      "latitude_deg": 1.965686365456707e-05,
      "longitude_deg": 147.72013963989767,
      "height_km": 482.7687323914208,
      "semi_major_axis_km": 6861.148852445813,
      "eccentricity": 0.00013441,
      "inclination_deg": 43.0064,
      "raan_deg": 121.636,
      "arg_perigee_deg": 271.273,
      "mean_anomaly_deg": 88.7968,
      "mean_motion_rev_day": 15.27592438
    },
    {
      "epoch": "2026-03-29T01:33:54.385920Z",
      "apogee_km": 483.331254841989,
      "perigee_km": 482.64102585407,
      "latitude_deg": 1.3855065298605011e-05,
      "longitude_deg": -92.00845080219442,
      "height_km": 482.5375030113311,
      "semi_major_axis_km": 6861.123140348029,
      "eccentricity": 5.03e-05,
      "inclination_deg": 43.0008,
      "raan_deg": 117.9448,
      "arg_perigee_deg": 310.5892,
      "mean_anomaly_deg": 49.4916,
      "mean_motion_rev_day": 15.27601025
    },
    {
      "epoch": "2026-03-29T01:33:54.386784Z",
      "apogee_km": 483.331254841989,
      "perigee_km": 482.64102585407,
      "latitude_deg": 1.3855065573827332e-05,
      "longitude_deg": -92.00845441204861,
      "height_km": 482.5375030113271,
      "semi_major_axis_km": 6861.123140348029,
      "eccentricity": 5.03e-05,
      "inclination_deg": 43.0008,
      "raan_deg": 117.9448,
      "arg_perigee_deg": 310.5892,
      "mean_anomaly_deg": 49.4916,
      "mean_motion_rev_day": 15.27601025
    },
    {
      "epoch": "2026-03-30T10:31:11.473536Z",
      "apogee_km": 483.22749527012184,
      "perigee_km": 482.7424139479299,
      "latitude_deg": 1.7754229303030556e-05,
      "longitude_deg": 124.56305258769876,
      "height_km": 482.84657490429055,
      "semi_major_axis_km": 6861.121954609025,
      "eccentricity": 3.535e-05,
      "inclination_deg": 43.0003,
      "raan_deg": 110.1909,
      "arg_perigee_deg": 249.2663,
      "mean_anomaly_deg": 110.8151,
      "mean_motion_rev_day": 15.27601421
    },
    {
      "epoch": "2026-03-30T18:21:58.250592Z",
      "apogee_km": 483.62462167217654,
      "perigee_km": 482.45822134052105,
      "latitude_deg": 6.182903007487946e-05,
      "longitude_deg": 4.696758354798857,
      "height_km": 482.7434144129019,
      "semi_major_axis_km": 6861.178421506349,
      "eccentricity": 8.5e-05,
      "inclination_deg": 43.007,
      "raan_deg": 108.3417,
      "arg_perigee_deg": 277.3897,
      "mean_anomaly_deg": 82.6859,
      "mean_motion_rev_day": 15.27582563
    },
    {
      "epoch": "2026-03-31T17:54:19.106208Z",
      "apogee_km": 484.2261770146979,
      "perigee_km": 481.8110502387026,
      "latitude_deg": 2.7846007997044464e-06,
      "longitude_deg": 5.107080744980706,
      "height_km": 482.7750220330941,
      "semi_major_axis_km": 6861.1556136267,
      "eccentricity": 0.000176,
      "inclination_deg": 43.001,
      "raan_deg": 102.8057,
      "arg_perigee_deg": 270.982,
      "mean_anomaly_deg": 89.083,
      "mean_motion_rev_day": 15.2759018
    },
    {
      "epoch": "2026-04-01T01:45:06.330816Z",
      "apogee_km": 484.03510849037684,
      "perigee_km": 482.0127127003698,
      "latitude_deg": -3.414259400744977e-06,
      "longitude_deg": -114.75993692246318,
      "height_km": 482.6011004164723,
      "semi_major_axis_km": 6861.160910595373,
      "eccentricity": 0.00014738,
      "inclination_deg": 43.0027,
      "raan_deg": 100.9577,
      "arg_perigee_deg": 281.4004,
      "mean_anomaly_deg": 78.6682,
      "mean_motion_rev_day": 15.27588411
    },
    {
      "epoch": "2026-04-02T16:59:00.355200Z",
      "apogee_km": 484.3880686325592,
      "perigee_km": 481.5544309254001,
      "latitude_deg": -2.7645848702325903e-06,
      "longitude_deg": 5.921176230439106,
      "height_km": 482.7469622871415,
      "semi_major_axis_km": 6861.108249778979,
      "eccentricity": 0.0002065,
      "inclination_deg": 43.0042,
      "raan_deg": 91.7251,
      "arg_perigee_deg": 270.0799,
      "mean_anomaly_deg": 89.9816,
      "mean_motion_rev_day": 15.27605998
    },
    {
      "epoch": "2026-04-02T16:59:00.356064Z",
      "apogee_km": 484.3881372436408,
      "perigee_km": 481.5543623143176,
      "latitude_deg": -1.9783253688725806e-06,
      "longitude_deg": 5.921173458963602,
      "height_km": 482.7469621915239,
      "semi_major_axis_km": 6861.108249778979,
      "eccentricity": 0.00020651,
      "inclination_deg": 43.0042,
      "raan_deg": 91.7251,
      "arg_perigee_deg": 270.0799,
      "mean_anomaly_deg": 89.9816,
      "mean_motion_rev_day": 15.27605998
    },
    {
      "epoch": "2026-04-02T23:15:38.079072Z",
      "apogee_km": 483.0569658309905,
      "perigee_km": 482.81861209282306,
      "latitude_deg": 1.3710225599219682e-05,
      "longitude_deg": -89.97168202297819,
      "height_km": 482.65929809524704,
      "semi_major_axis_km": 6861.074788961907,
      "eccentricity": 1.737e-05,
      "inclination_deg": 42.9977,
      "raan_deg": 90.2472,
      "arg_perigee_deg": 296.8362,
      "mean_anomaly_deg": 63.2472,
      "mean_motion_rev_day": 15.27617173
    },
    {
      "epoch": "2026-04-04T08:12:56.006496Z",
      "apogee_km": 483.99998079281977,
      "perigee_km": 482.14059361798627,
      "latitude_deg": 3.7867016589855996e-05,
      "longitude_deg": 126.59763282357422,
      "height_km": 482.53305614493445,
      "semi_major_axis_km": 6861.207287205402,
      "eccentricity": 0.0001355,
      "inclination_deg": 43.0032,
      "raan_deg": 82.4946,
      "arg_perigee_deg": 289.7544,
      "mean_anomaly_deg": 70.3162,
      "mean_motion_rev_day": 15.27572923
    }
  ]
}